{"fetched_at":"2026-07-22T07:10:08.670Z","source":"https://celestrak.org/NORAD/elements/gp.php?NAME=STRIX&FORMAT=JSON","constellation":"synspective","records":[{"OBJECT_NAME":"STRIX-1","OBJECT_ID":"2022-113A","EPOCH":"2026-07-21T14:38:35.403072","CLASSIFICATION_TYPE":"U","MEAN_MOTION":15.41199712,"ECCENTRICITY":0.00056115,"INCLINATION":97.4471,"RA_OF_ASC_NODE":265.2795,"ARG_OF_PERICENTER":116.1436,"MEAN_ANOMALY":244.0389,"EPHEMERIS_TYPE":0,"NORAD_CAT_ID":53815,"ELEMENT_SET_NO":999,"REV_AT_EPOCH":21274,"BSTAR":0.00052146934,"MEAN_MOTION_DOT":0.00021602,"MEAN_MOTION_DDOT":0},{"OBJECT_NAME":"STRIX-3","OBJECT_ID":"2024-047A","EPOCH":"2026-07-21T14:47:09.968640","CLASSIFICATION_TYPE":"U","MEAN_MOTION":15.19877557,"ECCENTRICITY":0.00112962,"INCLINATION":97.6642,"RA_OF_ASC_NODE":178.8156,"ARG_OF_PERICENTER":310.1702,"MEAN_ANOMALY":49.8543,"EPHEMERIS_TYPE":0,"NORAD_CAT_ID":59224,"ELEMENT_SET_NO":999,"REV_AT_EPOCH":12997,"BSTAR":0.00039079488,"MEAN_MOTION_DOT":0.00008332,"MEAN_MOTION_DDOT":0},{"OBJECT_NAME":"STRIX-4","OBJECT_ID":"2024-137A","EPOCH":"2026-07-21T02:23:03.264576","CLASSIFICATION_TYPE":"U","MEAN_MOTION":15.33449341,"ECCENTRICITY":0.00169735,"INCLINATION":43.015,"RA_OF_ASC_NODE":91.9325,"ARG_OF_PERICENTER":172.4344,"MEAN_ANOMALY":187.6769,"EPHEMERIS_TYPE":0,"NORAD_CAT_ID":60352,"ELEMENT_SET_NO":999,"REV_AT_EPOCH":10922,"BSTAR":0.00046679369,"MEAN_MOTION_DOT":0.00015229,"MEAN_MOTION_DDOT":0},{"OBJECT_NAME":"STRIX-2","OBJECT_ID":"2024-248A","EPOCH":"2026-07-21T14:51:31.711392","CLASSIFICATION_TYPE":"U","MEAN_MOTION":15.09234109,"ECCENTRICITY":0.00142194,"INCLINATION":97.6302,"RA_OF_ASC_NODE":158.0702,"ARG_OF_PERICENTER":211.5053,"MEAN_ANOMALY":148.5326,"EPHEMERIS_TYPE":0,"NORAD_CAT_ID":62406,"ELEMENT_SET_NO":999,"REV_AT_EPOCH":8678,"BSTAR":0.00032569012,"MEAN_MOTION_DOT":0.00005129,"MEAN_MOTION_DDOT":0},{"OBJECT_NAME":"STRIX-5","OBJECT_ID":"2025-229A","EPOCH":"2026-07-20T23:01:12.341568","CLASSIFICATION_TYPE":"U","MEAN_MOTION":15.04616463,"ECCENTRICITY":0.00380572,"INCLINATION":41.9281,"RA_OF_ASC_NODE":100.0962,"ARG_OF_PERICENTER":273.9922,"MEAN_ANOMALY":85.6554,"EPHEMERIS_TYPE":0,"NORAD_CAT_ID":65971,"ELEMENT_SET_NO":999,"REV_AT_EPOCH":4206,"BSTAR":0.00019876079,"MEAN_MOTION_DOT":0.00002687,"MEAN_MOTION_DDOT":0},{"OBJECT_NAME":"STRIX-6","OBJECT_ID":"2026-056A","EPOCH":"2026-07-21T08:43:30.223200","CLASSIFICATION_TYPE":"U","MEAN_MOTION":15.00345174,"ECCENTRICITY":0.00166202,"INCLINATION":50.2823,"RA_OF_ASC_NODE":188.2152,"ARG_OF_PERICENTER":14.8992,"MEAN_ANOMALY":345.2444,"EPHEMERIS_TYPE":0,"NORAD_CAT_ID":68291,"ELEMENT_SET_NO":999,"REV_AT_EPOCH":1840,"BSTAR":0.00013830478,"MEAN_MOTION_DOT":0.00001492,"MEAN_MOTION_DDOT":0},{"OBJECT_NAME":"STRIX-7","OBJECT_ID":"2026-112A","EPOCH":"2026-07-21T13:38:06.855360","CLASSIFICATION_TYPE":"U","MEAN_MOTION":15.01639282,"ECCENTRICITY":0.00252644,"INCLINATION":44.9086,"RA_OF_ASC_NODE":11.845,"ARG_OF_PERICENTER":242.2153,"MEAN_ANOMALY":117.6157,"EPHEMERIS_TYPE":0,"NORAD_CAT_ID":69177,"ELEMENT_SET_NO":999,"REV_AT_EPOCH":904,"BSTAR":0.00026126999,"MEAN_MOTION_DOT":0.00003233,"MEAN_MOTION_DDOT":0},{"OBJECT_NAME":"STRIX-8","OBJECT_ID":"2026-146A","EPOCH":"2026-07-21T14:12:49.625856","CLASSIFICATION_TYPE":"U","MEAN_MOTION":15.04471307,"ECCENTRICITY":0.00064243,"INCLINATION":41.9905,"RA_OF_ASC_NODE":337.6553,"ARG_OF_PERICENTER":70.1019,"MEAN_ANOMALY":290.05,"EPHEMERIS_TYPE":0,"NORAD_CAT_ID":69701,"ELEMENT_SET_NO":999,"REV_AT_EPOCH":374,"BSTAR":0.00028413144,"MEAN_MOTION_DOT":0.00003855,"MEAN_MOTION_DDOT":0}]}
