{"epoch":1784710044,"count":18256,"objects":[{"id":"53815","name":"STRIX-1","type":"PAYLOAD","l1":"1 53815U 22113A   26202.61013198  .00021602  00000-0  52147-3 0  9995","l2":"2 53815  97.4471 265.2795 0005611 116.1436 244.0389 15.41199712212743"},{"id":"59224","name":"STRIX-3","type":"PAYLOAD","l1":"1 59224U 24047A   26202.61608760  .00008332  00000-0  39079-3 0  9992","l2":"2 59224  97.6642 178.8156 0011296 310.1702  49.8543 15.19877557129973"},{"id":"60352","name":"STRIX-4","type":"PAYLOAD","l1":"1 60352U 24137A   26202.09934334  .00015229  00000-0  46679-3 0  9994","l2":"2 60352  43.0150  91.9325 0016973 172.4344 187.6769 15.33449341109226"},{"id":"62406","name":"STRIX 2","type":"PAYLOAD","l1":"1 62406U 24248A   26202.61911703  .00005129  00000-0  32569-3 0  9993","l2":"2 62406  97.6302 158.0702 0014219 211.5053 148.5326 15.09234109 86786"},{"id":"65971","name":"STRIX-5","type":"PAYLOAD","l1":"1 65971U 25229A   26201.95917062  .00002687  00000-0  19876-3 0  9995","l2":"2 65971  41.9281 100.0962 0038057 273.9922  85.6554 15.04616463 42061"},{"id":"68291","name":"STRIX-6","type":"PAYLOAD","l1":"1 68291U 26056A   26202.36354425  .00001492  00000-0  13830-3 0  9993","l2":"2 68291  50.2823 188.2152 0016620  14.8992 345.2444 15.00345174 18402"},{"id":"69177","name":"STRIX-7","type":"PAYLOAD","l1":"1 69177U 26112A   26202.56813490  .00003233  00000-0  26127-3 0  9992","l2":"2 69177  44.9086  11.8450 0025264 242.2153 117.6157 15.01639282  9048"},{"id":"69701","name":"STRIX-8","type":"PAYLOAD","l1":"1 69701U 26146A   26202.59224104  .00003855  00000-0  28413-3 0  9993","l2":"2 69701  41.9905 337.6553 0006424  70.1019 290.0500 15.04471307  3741"}]}